LEMUR-2-GREENBERG       
1 42837U 17042N   26068.46200528  .00019778  00000+0  72539-3 0  9997
2 42837  97.3781 249.8007 0009157   4.0119 356.1192 15.27971352473146
STARLINK-33936          
1 64005U 25101M   26068.14697958  .00039271  00000+0  14286-2 0  9999
2 64005  43.0037   0.9080 0001447 286.5421  73.5271 15.27589114 46979
